OBJECT_NAME,OBJECT_ID,EPOCH,MEAN_MOTION,ECCENTRICITY,INCLINATION,RA_OF_ASC_NODE,ARG_OF_PERICENTER,MEAN_ANOMALY,EPHEMERIS_TYPE,CLASSIFICATION_TYPE,NORAD_CAT_ID,ELEMENT_SET_NO,REV_AT_EPOCH,BSTAR,MEAN_MOTION_DOT,MEAN_MOTION_DDOT
LEMUR-2-ROUNDTRIPPER,2025-009DG,2026-07-14T04:07:12.345888,15.04222333,.0004423,97.7254,277.8172,65.7760,294.3928,0,U,62711,999,8168,.37125E-3,.5099E-4,0
LEMUR-2-MYNAMEISJEFF,2025-009DH,2026-07-14T04:05:01.088736,15.04213398,.000398,97.7303,278.2132,99.3120,260.8555,0,U,62712,999,8168,.3598E-3,.4939E-4,0
LEMUR-2-LEIA-PHILIP,2025-052AN,2026-07-14T04:49:34.971744,14.97391003,.0005085,97.6809,86.6941,121.5561,238.6158,0,U,63246,999,7271,.34128E-4,.339E-5,0
LEMUR-2-LIA-MARTIN,2025-052AQ,2026-07-14T03:06:09.868896,14.98025767,.0005376,97.6873,87.1404,92.6017,267.5821,0,U,63248,999,7271,.21882E-3,.2528E-4,0
LEMUR-2-DELOITTE-1,2025-052BB,2026-07-13T17:00:32.955264,14.97775097,.0002497,97.6883,87.0566,66.3822,293.7662,0,U,63259,999,7266,.19939E-3,.2283E-4,0
LEMUR-2-EMERSONROSE,2025-052BD,2026-07-14T04:35:51.786240,14.99285612,.0002758,97.6887,88.1429,62.7651,297.3853,0,U,63261,999,7278,.23849E-3,.2852E-4,0
LEMUR-2-MARACHE-FRAN,2025-052BE,2026-07-13T16:21:13.843008,15.00310104,.0005034,97.6842,88.0061,258.6633,101.4026,0,U,63262,999,7273,.15702E-3,.1909E-4,0
LEMUR-2-THEFALCONER,2025-052BG,2026-07-13T22:32:44.642112,14.97560808,.0000315,97.6838,86.8760,328.2070,31.9133,0,U,63264,999,7269,.10255E-3,.1139E-4,0
LEMUR-2-UNTITLED-SC,2025-061A,2026-07-13T22:19:01.159392,15.13641863,.0019107,97.5650,170.1016,167.3308,192.8407,0,U,63351,999,7163,.11037E-3,.1925E-4,0
LEMUR-2-ESPERANZA,2025-061B,2026-07-14T04:04:23.001024,15.13748560,.0018746,97.5657,170.4397,165.6464,194.5304,0,U,63352,999,7167,.95468E-4,.166E-4,0
LEMUR-2-KREMPEL-BRO2,2025-061C,2026-07-13T23:46:37.947072,15.14174614,.0019865,97.5703,170.8294,159.2855,200.9186,0,U,63353,999,7166,.10397E-3,.1837E-4,0
LEMUR-2-THERMORAPTOR,2025-061D,2026-07-14T04:04:12.031680,15.14257627,.0019645,97.5709,171.0882,157.5029,202.7068,0,U,63354,999,7169,.10288E-3,.1822E-4,0
LEMUR-2-NEUROSPICY,2025-061E,2026-07-13T20:59:49.236288,15.14375512,.0017345,97.5636,170.4007,161.3310,198.8561,0,U,63355,999,7165,.12908E-3,.2309E-4,0
LEMUR-2-TILLINFINITY,2025-061F,2026-07-13T21:35:47.484096,15.14959220,.0018939,97.5622,170.7347,150.0643,210.1677,0,U,63356,999,7168,.11182E-3,.2026E-4,0
LEMUR-2-KREMPEL-BRO1,2025-061G,2026-07-13T21:02:30.411168,15.14766529,.0019554,97.5622,170.6202,151.5684,208.6619,0,U,63357,999,7167,.12655E-3,.229E-4,0
LEMUR-2-LANGER2SPACE,2025-061H,2026-07-13T21:48:23.061600,15.14460179,.0017302,97.5628,170.4552,159.5245,200.6684,0,U,63358,999,7166,.1005E-3,.1787E-4,0
LEMUR-2-BALTO,2025-052BH,2026-07-14T03:11:02.541120,15.00358547,.0005138,97.6931,88.4383,332.0768,28.0179,0,U,63395,999,7280,.22028E-3,.2706E-4,0
LEMUR-2-KRISH,2025-135AK,2026-07-13T19:45:12.256128,14.96443451,.0001441,97.7772,309.5216,95.6216,264.5169,0,U,64561,999,5790,.18963E-3,.2093E-4,0
LEMUR-2-HUBBLE-4,2025-135AP,2026-07-13T20:50:27.752064,14.93683552,.0002566,97.7718,308.4649,165.5181,194.6112,0,U,64565,999,5785,.10517E-3,.1055E-4,0
LEMUR-2-SEJONG-2,2025-135BL,2026-07-14T04:17:23.675136,14.96907030,.0003894,97.7706,310.0207,223.7088,136.3826,0,U,64586,999,5798,.19196E-3,.2145E-4,0
LEMUR-2-HUBBLE-5,2025-135BT,2026-07-13T21:03:51.590016,14.94211614,.0004246,97.7739,309.1417,240.7379,119.3417,0,U,64840,999,5789,.91646E-4,.925E-5,0
LEMUR-2-KARENDARRELL,2025-135BU,2026-07-13T20:42:20.142432,15.00488219,.0012325,97.7713,311.0352,108.8027,251.4535,0,U,64841,999,5801,.35249E-3,.4386E-4,0
LEMUR-2-LUCILLE-ROSE,2025-135BV,2026-07-13T13:39:58.444416,15.00477141,.0014681,97.7706,310.7769,193.9631,166.1189,0,U,65403,999,5259,.28939E-3,.3591E-4,0
LEMUR-2-AFFIE-WAUWIE,2025-248C,2026-07-13T09:47:59.059680,15.28200773,.0008714,45.3884,332.8093,240.1921,119.8103,0,U,66295,999,3860,.46625316E-3,.12783E-3,0
OTTER SDM,2025-276N,2026-07-14T04:13:03.478080,15.20049880,.0004268,97.4208,268.2073,258.7712,101.3043,0,U,66678,999,3451,.16568E-3,.3505E-4,0
LEMUR-2-STAS-GORBUK,2025-276W,2026-07-14T04:43:32.202336,15.19652714,.000355,97.4241,268.2799,253.3006,106.7839,0,U,66686,999,3451,.14284E-3,.2977E-4,0
LEMUR-2-TEODOR,2025-276DG,2026-07-14T03:37:26.807808,15.21330418,.000225,97.4147,268.5054,89.0429,271.1064,0,U,66768,999,3454,.15612E-3,.3426E-4,0
LEMUR-2-LAILA,2025-276DQ,2026-07-14T04:28:53.004576,15.21556874,.0002891,97.4170,268.6786,95.5608,264.5957,0,U,66776,999,3455,.1397E-3,.3079E-4,0
LEMUR-2-CELIJO-SB-PK,2025-276DW,2026-07-14T04:25:35.793120,15.00277827,.0007048,97.5200,265.0710,66.7981,293.3984,0,U,66781,999,2667,.22511E-3,.2764E-4,0
LEMUR-2-FINNIAN,2025-276DX,2026-07-13T18:07:00.247008,15.00606139,.0008117,97.5311,264.9238,7.7708,352.3641,0,U,66782,999,2398,.1323E-3,.1614E-4,0
